start=new Date('2023-03-25T00:00:00.000Z').valueOf();
sats=[{"ELEMENT_SET_NO":"999","MEAN_ELEMENT_THEORY":"SGP4","TLE_LINE1":"1 53897U 22119M   23083.84367957  .00001460  00000-0  10976-3 0  9999","EPHEMERIS_TYPE":"0","MEAN_MOTION":"15.08856816","CLASSIFICATION_TYPE":"U","CENTER_NAME":"EARTH","FILE":"3869878","APOAPSIS":"540.633","RA_OF_ASC_NODE":"136.2213","NORAD_CAT_ID":"53897","REF_FRAME":"TEME","REV_AT_EPOCH":"2809","MEAN_MOTION_DDOT":"0.0000000000000","RCS_SIZE":"LARGE","SEMIMAJOR_AXIS":"6917.829","COUNTRY_CODE":"US","ECCENTRICITY":"0.00013580","EPOCH":"2023-03-24T20:14:53.914848","OBJECT_ID":"2022-119M","OBJECT_TYPE":"PAYLOAD","TIME_SYSTEM":"UTC","PERIOD":"95.436","TLE_LINE2":"2 53897  53.2164 136.2213 0001358 107.5935 252.5206 15.08856816 28099","PERIAPSIS":"538.755","MEAN_MOTION_DOT":"0.00001460","MEAN_ANOMALY":"252.5206","ARG_OF_PERICENTER":"107.5935","DECAY_DATE":null,"OBJECT_NAME":"STARLINK-5035","GP_ID":"228795706","INCLINATION":"53.2164","BSTAR":"0.00010976000000","SITE":"AFETR","LAUNCH_DATE":"2022-09-24"},{"MEAN_MOTION":"15.08865957","EPHEMERIS_TYPE":"0","TLE_LINE1":"1 53898U 22119N   23083.42043130  .00002876  00000-0  19860-3 0  9991","ELEMENT_SET_NO":"999","MEAN_ELEMENT_THEORY":"SGP4","CENTER_NAME":"EARTH","CLASSIFICATION_TYPE":"U","REV_AT_EPOCH":"2845","MEAN_MOTION_DDOT":"0.0000000000000","NORAD_CAT_ID":"53898","REF_FRAME":"TEME","RA_OF_ASC_NODE":"137.8465","APOAPSIS":"540.855","FILE":"3869846","OBJECT_ID":"2022-119N","OBJECT_TYPE":"PAYLOAD","ECCENTRICITY":"0.00017190","EPOCH":"2023-03-24T10:05:25.264320","COUNTRY_CODE":"US","SEMIMAJOR_AXIS":"6917.801","RCS_SIZE":"LARGE","TIME_SYSTEM":"UTC","MEAN_ANOMALY":"253.0264","TLE_LINE2":"2 53898  53.2179 137.8465 0001719 107.0917 253.0264 15.08865957 28454","MEAN_MOTION_DOT":"0.00002876","PERIAPSIS":"538.477","PERIOD":"95.436","ARG_OF_PERICENTER":"107.0917","DECAY_DATE":null,"SITE":"AFETR","LAUNCH_DATE":"2022-09-24","BSTAR":"0.00019860000000","GP_ID":"228794304","INCLINATION":"53.2179","OBJECT_NAME":"STARLINK-5044"},{"LAUNCH_DATE":"2022-09-24","SITE":"AFETR","BSTAR":"0.00266650000000","GP_ID":"228793052","INCLINATION":"53.2162","OBJECT_NAME":"STARLINK-5042","DECAY_DATE":null,"ARG_OF_PERICENTER":"77.0191","MEAN_ANOMALY":"283.0975","PERIAPSIS":"538.470","MEAN_MOTION_DOT":"0.00042481","TLE_LINE2":"2 53899  53.2162 137.8680 0001558  77.0191 283.0975 15.08904646 28458","PERIOD":"95.433","TIME_SYSTEM":"UTC","OBJECT_TYPE":"PAYLOAD","OBJECT_ID":"2022-119P","EPOCH":"2023-03-24T10:10:45.019488","ECCENTRICITY":"0.00015580","COUNTRY_CODE":"US","SEMIMAJOR_AXIS":"6917.683","RCS_SIZE":"LARGE","REV_AT_EPOCH":"2845","MEAN_MOTION_DDOT":"0.0000000000000","REF_FRAME":"TEME","NORAD_CAT_ID":"53899","RA_OF_ASC_NODE":"137.8680","APOAPSIS":"540.626","FILE":"3869846","CENTER_NAME":"EARTH","CLASSIFICATION_TYPE":"U","EPHEMERIS_TYPE":"0","MEAN_MOTION":"15.08904646","TLE_LINE1":"1 53899U 22119P   23083.42413217  .00042481  00000-0  26665-2 0  9995","ELEMENT_SET_NO":"999","MEAN_ELEMENT_THEORY":"SGP4"},{"CENTER_NAME":"EARTH","CLASSIFICATION_TYPE":"U","MEAN_MOTION":"15.08866226","EPHEMERIS_TYPE":"0","TLE_LINE1":"1 53900U 22119Q   23083.87676258  .00009358  00000-0  60482-3 0  9995","ELEMENT_SET_NO":"999","MEAN_ELEMENT_THEORY":"SGP4","OBJECT_TYPE":"PAYLOAD","OBJECT_ID":"2022-119Q","EPOCH":"2023-03-24T21:02:32.286912","ECCENTRICITY":"0.00015930","COUNTRY_CODE":"US","RCS_SIZE":"LARGE","SEMIMAJOR_AXIS":"6917.800","MEAN_MOTION_DDOT":"0.0000000000000","REV_AT_EPOCH":"2810","REF_FRAME":"TEME","NORAD_CAT_ID":"53900","RA_OF_ASC_NODE":"135.7198","APOAPSIS":"540.767","FILE":"3869876","MEAN_ANOMALY":"278.4361","PERIAPSIS":"538.563","MEAN_MOTION_DOT":"0.00009358","TLE_LINE2":"2 53900  53.2164 135.7198 0001593  81.6811 278.4361 15.08866226 28103","PERIOD":"95.436","TIME_SYSTEM":"UTC","LAUNCH_DATE":"2022-09-24","SITE":"AFETR","BSTAR":"0.00060482000000","OBJECT_NAME":"STARLINK-5045","GP_ID":"228795719","INCLINATION":"53.2164","ARG_OF_PERICENTER":"81.6811","DECAY_DATE":null},{"REF_FRAME":"TEME","NORAD_CAT_ID":"53901","REV_AT_EPOCH":"2845","MEAN_MOTION_DDOT":"0.0000000000000","FILE":"3869846","APOAPSIS":"540.715","RA_OF_ASC_NODE":"137.8896","EPOCH":"2023-03-24T10:16:02.708832","ECCENTRICITY":"0.00015650","OBJECT_TYPE":"PAYLOAD","OBJECT_ID":"2022-119R","SEMIMAJOR_AXIS":"6917.768","RCS_SIZE":"LARGE","COUNTRY_CODE":"US","MEAN_MOTION":"15.08876856","EPHEMERIS_TYPE":"0","ELEMENT_SET_NO":"999","MEAN_ELEMENT_THEORY":"SGP4","TLE_LINE1":"1 53901U 22119R   23083.42780913  .00008628  00000-0  55895-3 0  9992","CENTER_NAME":"EARTH","CLASSIFICATION_TYPE":"U","ARG_OF_PERICENTER":"108.2188","DECAY_DATE":null,"LAUNCH_DATE":"2022-09-24","SITE":"AFETR","GP_ID":"228793553","OBJECT_NAME":"STARLINK-5024","INCLINATION":"53.2157","BSTAR":"0.00055895000000","TIME_SYSTEM":"UTC","MEAN_MOTION_DOT":"0.00008628","PERIAPSIS":"538.550","TLE_LINE2":"2 53901  53.2157 137.8896 0001565 108.2188 251.8974 15.08876856 28459","MEAN_ANOMALY":"251.8974","PERIOD":"95.435"},{"BSTAR":"0.00522470000000","GP_ID":"228824925","INCLINATION":"53.2100","OBJECT_NAME":"STARLINK-5021","LAUNCH_DATE":"2022-09-24","SITE":"AFETR","ARG_OF_PERICENTER":"104.4037","DECAY_DATE":null,"PERIOD":"95.439","MEAN_ANOMALY":"82.3834","MEAN_MOTION_DOT":"0.00083815","PERIAPSIS":"539.035","TLE_LINE2":"2 53902  53.2100  85.6875 0001101 104.4037  82.3834 15.08823181  1302","TIME_SYSTEM":"UTC","COUNTRY_CODE":"US","SEMIMAJOR_AXIS":"6917.932","RCS_SIZE":"LARGE","OBJECT_TYPE":"PAYLOAD","OBJECT_ID":"2022-119S","EPOCH":"2023-03-24T22:00:01.999584","ECCENTRICITY":"0.00011010","APOAPSIS":"540.558","RA_OF_ASC_NODE":"85.6875","FILE":"3870109","REV_AT_EPOCH":"130","MEAN_MOTION_DDOT":"0.0000000000000","REF_FRAME":"TEME","NORAD_CAT_ID":"53902","CLASSIFICATION_TYPE":"U","CENTER_NAME":"EARTH","TLE_LINE1":"1 53902U 22119S   23083.91668981  .00083815  00000-0  52247-2 0  9995","MEAN_ELEMENT_THEORY":"SGP4","ELEMENT_SET_NO":"999","MEAN_MOTION":"15.08823181","EPHEMERIS_TYPE":"0"},{"GP_ID":"228825675","INCLINATION":"53.2154","OBJECT_NAME":"STARLINK-5022","BSTAR":"-0.00005045600000","SITE":"AFETR","LAUNCH_DATE":"2022-09-24","ARG_OF_PERICENTER":"65.4114","DECAY_DATE":null,"PERIOD":"95.437","TLE_LINE2":"2 53903  53.2154 135.7438 0002503  65.4114 294.7139 15.08842228 28526","MEAN_MOTION_DOT":"-0.00001091","PERIAPSIS":"538.007","MEAN_ANOMALY":"294.7139","TIME_SYSTEM":"UTC","SEMIMAJOR_AXIS":"6917.874","RCS_SIZE":"LARGE","COUNTRY_CODE":"US","ECCENTRICITY":"0.00025030","EPOCH":"2023-03-24T21:07:51.027744","OBJECT_ID":"2022-119T","OBJECT_TYPE":"PAYLOAD","FILE":"3870109","RA_OF_ASC_NODE":"135.7438","APOAPSIS":"541.470","NORAD_CAT_ID":"53903","REF_FRAME":"TEME","MEAN_MOTION_DDOT":"0.0000000000000","REV_AT_EPOCH":"2852","CLASSIFICATION_TYPE":"U","CENTER_NAME":"EARTH","ELEMENT_SET_NO":"999","MEAN_ELEMENT_THEORY":"SGP4","TLE_LINE1":"1 53903U 22119T   23083.88045171 -.00001091  00000-0 -50456-4 0  9992","MEAN_MOTION":"15.08842228","EPHEMERIS_TYPE":"0"},{"MEAN_ANOMALY":"288.8784","TLE_LINE2":"2 53904  53.2153 135.6996 0001474  71.2368 288.8784 15.08855697 28520","PERIAPSIS":"538.678","MEAN_MOTION_DOT":"0.00002194","PERIOD":"95.437","TIME_SYSTEM":"UTC","SITE":"AFETR","LAUNCH_DATE":"2022-09-24","BSTAR":"0.00015583000000","GP_ID":"228825927","INCLINATION":"53.2153","OBJECT_NAME":"STARLINK-4787","ARG_OF_PERICENTER":"71.2368","DECAY_DATE":null,"CENTER_NAME":"EARTH","CLASSIFICATION_TYPE":"U","EPHEMERIS_TYPE":"0","MEAN_MOTION":"15.08855697","TLE_LINE1":"1 53904U 22119U   23083.87307478  .00002194  00000-0  15583-3 0  9997","MEAN_ELEMENT_THEORY":"SGP4","ELEMENT_SET_NO":"999","OBJECT_ID":"2022-119U","OBJECT_TYPE":"PAYLOAD","ECCENTRICITY":"0.00014740","EPOCH":"2023-03-24T20:57:13.660992","COUNTRY_CODE":"US","RCS_SIZE":"LARGE","SEMIMAJOR_AXIS":"6917.832","MEAN_MOTION_DDOT":"0.0000000000000","REV_AT_EPOCH":"2852","NORAD_CAT_ID":"53904","REF_FRAME":"TEME","APOAPSIS":"540.717","RA_OF_ASC_NODE":"135.6996","FILE":"3870109"},{"CLASSIFICATION_TYPE":"U","CENTER_NAME":"EARTH","TLE_LINE1":"1 53905U 22119V   23083.39934357  .00023685  00000-0  14987-2 0  9991","ELEMENT_SET_NO":"999","MEAN_ELEMENT_THEORY":"SGP4","MEAN_MOTION":"15.08902650","EPHEMERIS_TYPE":"0","COUNTRY_CODE":"US","SEMIMAJOR_AXIS":"6917.689","RCS_SIZE":"LARGE","OBJECT_ID":"2022-119V","OBJECT_TYPE":"PAYLOAD","ECCENTRICITY":"0.00013550","EPOCH":"2023-03-24T09:35:03.284448","APOAPSIS":"540.491","RA_OF_ASC_NODE":"128.4371","FILE":"3869846","REV_AT_EPOCH":"2858","MEAN_MOTION_DDOT":"0.0000000000000","NORAD_CAT_ID":"53905","REF_FRAME":"TEME","PERIOD":"95.434","MEAN_ANOMALY":"254.8409","TLE_LINE2":"2 53905  53.2151 128.4371 0001355 105.2733 254.8409 15.08902650 28583","PERIAPSIS":"538.617","MEAN_MOTION_DOT":"0.00023685","TIME_SYSTEM":"UTC","BSTAR":"0.00149870000000","OBJECT_NAME":"STARLINK-5003","GP_ID":"228794054","INCLINATION":"53.2151","SITE":"AFETR","LAUNCH_DATE":"2022-09-24","ARG_OF_PERICENTER":"105.2733","DECAY_DATE":null},{"TIME_SYSTEM":"UTC","PERIOD":"95.437","MEAN_ANOMALY":"250.2260","TLE_LINE2":"2 53906  53.2171 126.0478 0001331 109.8876 250.2260 15.08842743 28659","MEAN_MOTION_DOT":"-0.00002143","PERIAPSIS":"538.816","ARG_OF_PERICENTER":"109.8876","DECAY_DATE":null,"BSTAR":"-0.00011659000000","OBJECT_NAME":"STARLINK-5054","GP_ID":"228825425","INCLINATION":"53.2171","SITE":"AFETR","LAUNCH_DATE":"2022-09-24","TLE_LINE1":"1 53906U 22119W   23083.81144654 -.00002143  00000-0 -11659-3 0  9994","ELEMENT_SET_NO":"999","MEAN_ELEMENT_THEORY":"SGP4","EPHEMERIS_TYPE":"0","MEAN_MOTION":"15.08842743","CLASSIFICATION_TYPE":"U","CENTER_NAME":"EARTH","RA_OF_ASC_NODE":"126.0478","APOAPSIS":"540.658","FILE":"3870109","REV_AT_EPOCH":"2865","MEAN_MOTION_DDOT":"0.0000000000000","NORAD_CAT_ID":"53906","REF_FRAME":"TEME","COUNTRY_CODE":"US","RCS_SIZE":"LARGE","SEMIMAJOR_AXIS":"6917.872","OBJECT_ID":"2022-119W","OBJECT_TYPE":"PAYLOAD","ECCENTRICITY":"0.00013310","EPOCH":"2023-03-24T19:28:28.981056"}];
